NORAD_CAT_ID,OBJECT_NAME,OBJECT_TYPE,EPOCH,MEAN_MOTION,ECCENTRICITY,INCLINATION,RA_OF_ASC_NODE,ARG_OF_PERICENTER,MEAN_ANOMALY,BSTAR,MEAN_MOTION_DOT,MEAN_MOTION_DDOT,TLE_LINE0,TLE_LINE1,TLE_LINE2,SEMIMAJOR_AXIS,PERIOD,APOGEE,PERIGEE,DECAYED
53038.0,STARLINK-4156,PAYLOAD,2023-11-17 02:31:56,15.0884338,0.0001483,53.2174,261.1207,87.7632,272.353,6.1497e-06,-1.9e-06,0.0,0 STARLINK-4156,1 53038U 22076BE  23321.10551858 -.00000190  00000-0  61497-5 0  9993,2 53038  53.2174 261.1207 0001483  87.7632 272.3530 15.08843380 76231,6917.87,95.437,540.761,538.709,0.0
53038.0,STARLINK-4156,PAYLOAD,2023-11-17 13:39:38,15.08844553,0.0001495,53.2177,259.0366,88.3225,271.7939,1.2696e-05,-8.6e-07,0.0,0 STARLINK-4156,1 53038U 22076BE  23321.56919600 -.00000086  00000-0  12696-4 0  9996,2 53038  53.2177 259.0366 0001495  88.3225 271.7939 15.08844553 75849,6917.866,95.437,540.766,538.697,0.0
53038.0,STARLINK-4156,PAYLOAD,2023-11-18 02:22:43,15.08824553,0.0001669,53.2183,256.656,92.4354,267.6829,0.00029714,4.442e-05,0.0,0 STARLINK-4156,1 53038U 22076BE  23322.09911886  .00004442  00000-0  29714-3 0  9990,2 53038  53.2183 256.6560 0001669  92.4354 267.6829 15.08824553 76387,6917.928,95.439,540.947,538.638,0.0
53038.0,STARLINK-4156,PAYLOAD,2023-11-18 05:33:30,15.08826308,0.0001657,53.2183,256.0609,95.3325,264.7857,0.0003018,4.517e-05,0.0,0 STARLINK-4156,1 53038U 22076BE  23322.23159915  .00004517  00000-0  30180-3 0  9995,2 53038  53.2183 256.0609 0001657  95.3325 264.7857 15.08826308 75942,6917.922,95.438,540.934,538.641,0.0
53038.0,STARLINK-4156,PAYLOAD,2023-11-18 23:02:44,15.08835173,0.0001684,53.2179,252.7895,111.6811,248.436,0.00010657,1.408e-05,0.0,0 STARLINK-4156,1 53038U 22076BE  23322.96023771  .00001408  00000-0  10657-3 0  9998,2 53038  53.2179 252.7895 0001684 111.6811 248.4360 15.08835173 76050,6917.895,95.438,540.925,538.595,0.0
53038.0,STARLINK-4156,PAYLOAD,2023-11-19 02:13:30,15.08842294,0.0001584,53.2181,252.1948,93.3684,266.7489,5.7528e-05,6.28e-06,0.0,0 STARLINK-4156,1 53038U 22076BE  23323.09271618  .00000628  00000-0  57528-4 0  9990,2 53038  53.2181 252.1948 0001584  93.3684 266.7489 15.08842294 76539,6917.873,95.437,540.834,538.643,0.0
53038.0,STARLINK-4156,PAYLOAD,2023-11-19 05:24:16,15.08847902,0.0001559,53.2182,251.6002,98.9172,261.1997,-1.1062e-05,-4.64e-06,0.0,0 STARLINK-4156,1 53038U 22076BE  23323.22519486 -.00000464  00000-0 -11062-4 0  9996,2 53038  53.2182 251.6002 0001559  98.9172 261.1997 15.08847902 76095,6917.856,95.437,540.8,538.643,0.0
53038.0,STARLINK-4156,PAYLOAD,2023-11-20 11:36:36,15.08841259,0.0001475,53.2176,245.9545,86.5155,273.6006,-2.7106e-05,-7.19e-06,0.0,0 STARLINK-4156,1 53038U 22076BE  23324.48375897 -.00000719  00000-0 -27106-4 0  9990,2 53038  53.2176 245.9545 0001475  86.5155 273.6006 15.08841259 76747,6917.877,95.437,540.762,538.721,0.0
53038.0,STARLINK-4156,PAYLOAD,2023-11-20 22:44:18,15.08842281,0.0001408,53.2174,243.872,86.7261,273.3892,-6.7203e-06,-3.95e-06,0.0,0 STARLINK-4156,1 53038U 22076BE  23324.94743808 -.00000395  00000-0 -67203-5 0  9995,2 53038  53.2174 243.8720 0001408  86.7261 273.3892 15.08842281 76356,6917.873,95.437,540.712,538.764,0.0
53038.0,STARLINK-4156,PAYLOAD,2023-11-21 03:30:27,15.08852426,0.0002061,53.218,242.9825,127.5807,232.5372,1.571e-05,-3.8e-07,0.0,0 STARLINK-4156,1 53038U 22076BE  23325.14615012 -.00000038  00000-0  15710-4 0  9991,2 53038  53.2180 242.9825 0002061 127.5807 232.5372 15.08852426 76841,6917.842,95.437,541.133,538.282,0.0
53038.0,STARLINK-4156,PAYLOAD,2023-11-21 11:27:23,15.08839171,0.0001506,53.2173,241.4909,86.1363,273.9802,3.5902e-05,2.83e-06,0.0,0 STARLINK-4156,1 53038U 22076BE  23325.47735852  .00000283  00000-0  35902-4 0  9998,2 53038  53.2173 241.4909 0001506  86.1363 273.9802 15.08839171 76894,6917.883,95.438,540.79,538.706,0.0
53038.0,STARLINK-4156,PAYLOAD,2023-11-22 03:21:14,15.08847641,0.000123,53.2161,238.5195,90.931,269.1823,9.7687e-05,1.267e-05,0.0,0 STARLINK-4156,1 53038U 22076BE  23326.13975344  .00001267  00000-0  97687-4 0  9995,2 53038  53.2161 238.5195 0001230  90.9310 269.1823 15.08847641 76996,6917.857,95.437,540.573,538.871,0.0
53038.0,STARLINK-4156,PAYLOAD,2023-11-23 03:12:01,15.08858277,0.0001834,53.2165,234.0594,82.5551,277.565,0.00011882,1.604e-05,0.0,0 STARLINK-4156,1 53038U 22076BE  23327.13334596  .00001604  00000-0  11882-3 0  9991,2 53038  53.2165 234.0594 0001834  82.5551 277.5650 15.08858277 76682,6917.825,95.436,540.958,538.421,0.0
53038.0,STARLINK-4156,PAYLOAD,2023-11-23 22:16:41,15.08820425,0.0001417,53.2185,230.4908,81.5136,278.6016,-3.8884e-05,-9.06e-06,0.0,0 STARLINK-4156,1 53038U 22076BE  23327.92825720 -.00000906  00000-0 -38884-4 0  9990,2 53038  53.2185 230.4908 0001417  81.5136 278.6016 15.08820425 76804,6917.94,95.439,540.785,538.825,0.0
53038.0,STARLINK-4156,PAYLOAD,2023-11-24 03:02:49,15.08827562,0.0001484,53.2172,229.5974,98.0256,262.0904,-0.00014992,-2.672e-05,0.0,0 STARLINK-4156,1 53038U 22076BE  23328.12696752 -.00002672  00000-0 -14992-3 0  9999,2 53038  53.2172 229.5974 0001484  98.0256 262.0904 15.08827562 77298,6917.918,95.438,540.81,538.757,0.0
53038.0,STARLINK-4156,PAYLOAD,2023-11-24 22:07:27,15.08843138,0.0001356,53.2162,226.0307,80.205,279.9095,2.0951e-05,4.6e-07,0.0,0 STARLINK-4156,1 53038U 22076BE  23328.92184499  .00000046  00000-0  20951-4 0  9991,2 53038  53.2162 226.0307 0001356  80.2050 279.9095 15.08843138 76959,6917.871,95.437,540.674,538.798,0.0
53038.0,STARLINK-4156,PAYLOAD,2023-11-25 02:53:36,15.08854206,0.0001417,53.2168,225.1344,78.1823,281.9328,0.00020129,2.918e-05,0.0,0 STARLINK-4156,1 53038U 22076BE  23329.12056028  .00002918  00000-0  20129-3 0  9996,2 53038  53.2168 225.1344 0001417  78.1823 281.9328 15.08854206 77443,6917.837,95.437,540.682,538.722,0.0
53038.0,STARLINK-4156,PAYLOAD,2023-11-25 21:58:14,15.08856833,0.0001736,53.2171,221.5621,98.2397,261.8792,0.00048475,7.439e-05,0.0,0 STARLINK-4156,1 53038U 22076BE  23329.91544223  .00007439  00000-0  48475-3 0  9999,2 53038  53.2171 221.5621 0001736  98.2397 261.8792 15.08856833 77101,6917.829,95.436,540.895,538.493,0.0
53038.0,STARLINK-4156,PAYLOAD,2023-11-26 02:44:23,15.08865702,0.0001643,53.2172,220.6704,87.4145,272.7036,0.00073373,0.00011417,0.0,0 STARLINK-4156,1 53038U 22076BE  23330.11415637  .00011417  00000-0  73373-3 0  9995,2 53038  53.2172 220.6704 0001643  87.4145 272.7036 15.08865702 77132,6917.802,95.436,540.803,538.53,0.0
53038.0,STARLINK-4156,PAYLOAD,2023-11-26 20:13:38,15.08833101,0.0001763,53.2167,217.3987,111.9754,248.1426,-0.00023459,-4.019e-05,0.0,0 STARLINK-4156,1 53038U 22076BE  23330.84280589 -.00004019  00000-0 -23459-3 0  9993,2 53038  53.2167 217.3987 0001763 111.9754 248.1426 15.08833101 77705,6917.901,95.438,540.986,538.547,0.0
53038.0,STARLINK-4156,PAYLOAD,2023-11-26 21:49:01,15.08833758,0.00018,53.2164,217.1014,113.9732,246.1449,-0.0001838,-3.212e-05,0.0,0 STARLINK-4156,1 53038U 22076BE  23330.90904668 -.00003212  00000-0 -18380-3 0  9992,2 53038  53.2164 217.1014 0001800 113.9732 246.1449 15.08833758 77252,6917.899,95.438,541.01,538.519,0.0
53038.0,STARLINK-4156,PAYLOAD,2023-11-26 23:24:24,15.08830306,0.0001519,53.2165,216.8053,101.269,258.8472,-0.0002151,-3.709e-05,0.0,0 STARLINK-4156,1 53038U 22076BE  23330.97528879 -.00003709  00000-0 -21510-3 0  9995,2 53038  53.2165 216.8053 0001519 101.2690 258.8472 15.08830306 77265,6917.91,95.438,540.826,538.724,0.0
53038.0,STARLINK-4156,PAYLOAD,2023-11-27 21:39:49,15.08839625,0.0001425,53.216,212.6504,97.8566,262.2588,0.00024906,3.678e-05,0.0,0 STARLINK-4156,1 53038U 22076BE  23331.90265311  .00003678  00000-0  24906-3 0  9993,2 53038  53.2160 212.6504 0001425  97.8566 262.2588 15.08839625 77409,6917.882,95.438,540.732,538.761,0.0
53038.0,STARLINK-4156,PAYLOAD,2023-11-28 19:55:12,15.08858447,0.0001594,53.2161,208.4906,120.4803,239.6347,0.00055318,8.531e-05,0.0,0 STARLINK-4156,1 53038U 22076BE  23332.83000511  .00008531  00000-0  55318-3 0  9999,2 53038  53.2161 208.4906 0001594 120.4803 239.6347 15.08858447 78004,6917.824,95.436,540.792,538.586,0.0
53038.0,STARLINK-4156,PAYLOAD,2023-11-28 21:30:35,15.08882971,0.0001329,53.2159,208.1942,118.4788,241.6338,0.001265,0.00019925,0.0,0 STARLINK-4156,1 53038U 22076BE  23332.89624292  .00019925  00000-0  12650-2 0  9993,2 53038  53.2159 208.1942 0001329 118.4788 241.6338 15.08882971 77554,6917.749,95.435,540.533,538.695,0.0
53038.0,STARLINK-4156,PAYLOAD,2023-11-29 19:45:58,15.08854229,0.0001063,53.2152,204.0253,132.3887,227.7195,0.00021441,3.127e-05,0.0,0 STARLINK-4156,1 53038U 22076BE  23333.82359775  .00003127  00000-0  21441-3 0  9994,2 53038  53.2152 204.0253 0001063 132.3887 227.7195 15.08854229 78155,6917.837,95.437,540.437,538.967,0.0
53038.0,STARLINK-4156,PAYLOAD,2023-11-30 00:32:08,15.08837633,8.38e-05,53.2146,203.1284,122.7996,237.3077,-0.00020077,-3.481e-05,0.0,0 STARLINK-4156,1 53038U 22076BE  23334.02231899 -.00003481  00000-0 -20077-3 0  9992,2 53038  53.2146 203.1284 0000838 122.7996 237.3077 15.08837633 78184,6917.888,95.438,540.332,539.173,0.0
53038.0,STARLINK-4156,PAYLOAD,2023-11-30 22:47:33,15.08827581,0.0001144,53.2151,198.9688,72.4522,287.6595,2.3928e-06,-2.5e-06,0.0,0 STARLINK-4156,1 53038U 22076BE  23334.94969378 -.00000250  00000-0  23928-5 0  9993,2 53038  53.2151 198.9688 0001144  72.4522 287.6595 15.08827581 78326,6917.918,95.438,540.575,538.992,0.0
53038.0,STARLINK-4156,PAYLOAD,2023-12-01 19:27:34,15.08848177,0.0001303,53.2155,195.1023,61.1159,298.9964,0.00057405,8.862e-05,0.0,0 STARLINK-4156,1 53038U 22076BE  23335.81081372  .00008862  00000-0  57405-3 0  9990,2 53038  53.2155 195.1023 0001303  61.1159 298.9964 15.08848177 78453,6917.855,95.437,540.622,538.819,0.0
53038.0,STARLINK-4156,PAYLOAD,2023-12-01 21:02:57,15.08850429,0.0001867,53.2144,194.8076,47.451,312.6639,0.00067183,0.00010423,0.0,0 STARLINK-4156,1 53038U 22076BE  23335.87705419  .00010423  00000-0  67183-3 0  9991,2 53038  53.2144 194.8076 0001867  47.4510 312.6639 15.08850429 78005,6917.849,95.437,541.005,538.422,0.0
